[{"OBJECT_NAME":"STARLINK-31763","OBJECT_ID":"2024-080Y","EPOCH":"2026-03-09T22:07:05.385504","MEAN_MOTION":15.27570115,"ECCENTRICITY":0.0001447,"INCLINATION":43.0024,"RA_OF_ASC_NODE":36.9795,"ARG_OF_PERICENTER":258.5515,"MEAN_ANOMALY":101.5174,"EPHEMERIS_TYPE":0,"CLASSIFICATION_TYPE":"U","NORAD_CAT_ID":59623,"ELEMENT_SET_NO":999,"REV_AT_EPOCH":10456,"BSTAR":-1.9263915e-5,"MEAN_MOTION_DOT":-7.92e-6,"MEAN_MOTION_DDOT":0},{"OBJECT_NAME":"NUSAT-50 (NANCY ROMAN)","OBJECT_ID":"2024-149AB","EPOCH":"2026-03-09T19:15:16.765632","MEAN_MOTION":15.29713355,"ECCENTRICITY":0.00025229,"INCLINATION":97.3817,"RA_OF_ASC_NODE":150.7693,"ARG_OF_PERICENTER":238.0469,"MEAN_ANOMALY":122.0527,"EPHEMERIS_TYPE":0,"CLASSIFICATION_TYPE":"U","NORAD_CAT_ID":60493,"ELEMENT_SET_NO":999,"REV_AT_EPOCH":8693,"BSTAR":0.0004225155,"MEAN_MOTION_DOT":0.00012094,"MEAN_MOTION_DDOT":0}]
